[{"OBJECT_NAME":"STARLINK-1296","OBJECT_ID":"2020-019BE","EPOCH":"2026-03-09T13:32:04.441920","MEAN_MOTION":15.30190046,"ECCENTRICITY":0.0001519,"INCLINATION":53.1594,"RA_OF_ASC_NODE":129.8314,"ARG_OF_PERICENTER":88.1784,"MEAN_ANOMALY":271.939,"EPHEMERIS_TYPE":0,"CLASSIFICATION_TYPE":"U","NORAD_CAT_ID":45412,"ELEMENT_SET_NO":999,"REV_AT_EPOCH":32995,"BSTAR":1.1663e-5,"MEAN_MOTION_DOT":-1.4e-7,"MEAN_MOTION_DDOT":0},{"OBJECT_NAME":"OBJECT A","OBJECT_ID":"2023-189A","EPOCH":"2026-03-09T22:59:06.381600","MEAN_MOTION":15.32403275,"ECCENTRICITY":0.00094831,"INCLINATION":97.4458,"RA_OF_ASC_NODE":86.5997,"ARG_OF_PERICENTER":249.5377,"MEAN_ANOMALY":110.4847,"EPHEMERIS_TYPE":0,"CLASSIFICATION_TYPE":"U","NORAD_CAT_ID":58502,"ELEMENT_SET_NO":999,"REV_AT_EPOCH":12601,"BSTAR":0.00019874471,"MEAN_MOTION_DOT":6.146e-5,"MEAN_MOTION_DDOT":0}]
